NORAD_CAT_ID,OBJECT_NAME,OBJECT_TYPE,EPOCH,MEAN_MOTION,ECCENTRICITY,INCLINATION,RA_OF_ASC_NODE,ARG_OF_PERICENTER,MEAN_ANOMALY,BSTAR,MEAN_MOTION_DOT,MEAN_MOTION_DDOT,TLE_LINE0,TLE_LINE1,TLE_LINE2,SEMIMAJOR_AXIS,PERIOD,APOGEE,PERIGEE,DECAYED
53175.0,STARLINK-4292,PAYLOAD,2023-02-14 16:42:01,15.08861726,0.0001147,53.2162,157.482,102.195,257.9171,6.9272e-05,8.15e-06,0.0,0 STARLINK-4292,1 53175U 22083AV  23045.69584541  .00000815  00000-0  69272-4 0  9996,2 53175  53.2162 157.4820 0001147 102.1950 257.9171 15.08861726 32922,6917.814,95.436,540.472,538.886,0.0
53175.0,STARLINK-4292,PAYLOAD,2023-02-15 00:38:58,15.08843372,0.0001728,53.2149,155.9971,95.0293,265.0896,-5.2349e-05,-1.121e-05,0.0,0 STARLINK-4292,1 53175U 22083AV  23046.02706082 -.00001121  00000-0 -52349-4 0  9990,2 53175  53.2149 155.9971 0001728  95.0293 265.0896 15.08843372 32978,6917.87,95.437,540.93,538.54,0.0
53175.0,STARLINK-4292,PAYLOAD,2023-02-15 13:22:02,15.08854061,0.000155,53.216,153.6187,101.5702,258.5464,0.00016977,2.416e-05,0.0,0 STARLINK-4292,1 53175U 22083AV  23046.55696909  .00002416  00000-0  16977-3 0  9996,2 53175  53.2160 153.6187 0001550 101.5702 258.5464 15.08854061 32410,6917.837,95.437,540.775,538.63,0.0
53175.0,STARLINK-4292,PAYLOAD,2023-02-16 11:37:27,15.08804777,0.0001641,53.2134,149.4582,91.8422,268.2759,-0.00048708,-8.024e-05,0.0,0 STARLINK-4292,1 53175U 22083AV  23047.48434927 -.00008024  00000-0 -48708-3 0  9999,2 53175  53.2134 149.4582 0001641  91.8422 268.2759 15.08804777 33194,6917.988,95.44,540.988,538.718,0.0
53175.0,STARLINK-4292,PAYLOAD,2023-02-16 13:12:51,15.08804938,0.0001456,53.2132,149.1605,78.7022,281.4133,-0.00046377,-7.654e-05,0.0,0 STARLINK-4292,1 53175U 22083AV  23047.55059067 -.00007654  00000-0 -46377-3 0  9993,2 53175  53.2132 149.1605 0001456  78.7022 281.4133 15.08804938 32561,6917.988,95.44,540.86,538.845,0.0
53175.0,STARLINK-4292,PAYLOAD,2023-02-16 17:58:59,15.0881866,0.0001401,53.2137,148.2672,76.5235,283.5913,-0.00031003,-5.216e-05,0.0,0 STARLINK-4292,1 53175U 22083AV  23047.74930542 -.00005216  00000-0 -31003-3 0  9992,2 53175  53.2137 148.2672 0001401  76.5235 283.5913 15.08818660 33233,6917.946,95.439,540.78,538.841,0.0
53175.0,STARLINK-4292,PAYLOAD,2023-02-17 05:06:41,15.08822251,0.000107,53.2152,146.1835,84.1561,275.9553,-0.00016187,-2.862e-05,0.0,0 STARLINK-4292,1 53175U 22083AV  23048.21298519 -.00002862  00000-0 -16187-3 0  9996,2 53175  53.2152 146.1835 0001070  84.1561 275.9553 15.08822251 33301,6917.935,95.439,540.54,539.059,0.0
53175.0,STARLINK-4292,PAYLOAD,2023-02-17 13:03:37,15.08839346,0.0001841,53.2153,144.6995,90.149,269.9713,8.8254e-05,1.117e-05,0.0,0 STARLINK-4292,1 53175U 22083AV  23048.54417877  .00001117  00000-0  88254-4 0  9997,2 53175  53.2153 144.6995 0001841  90.1490 269.9713 15.08839346 32714,6917.882,95.438,541.021,538.474,0.0
53175.0,STARLINK-4292,PAYLOAD,2023-02-17 17:49:45,15.08858154,0.0001588,53.215,143.8048,87.6648,272.4526,0.00024702,3.647e-05,0.0,0 STARLINK-4292,1 53175U 22083AV  23048.74288832  .00003647  00000-0  24702-3 0  9993,2 53175  53.2150 143.8048 0001588  87.6648 272.4526 15.08858154 33388,6917.825,95.436,540.788,538.591,0.0
53175.0,STARLINK-4292,PAYLOAD,2023-02-18 12:54:25,15.08824213,0.0001644,53.2146,140.2382,94.2758,265.8422,2.5305e-05,1.15e-06,0.0,0 STARLINK-4292,1 53175U 22083AV  23049.53779310  .00000115  00000-0  25305-4 0  9995,2 53175  53.2146 140.2382 0001644  94.2758 265.8422 15.08824213 33508,6917.929,95.439,540.931,538.656,0.0
53175.0,STARLINK-4292,PAYLOAD,2023-02-18 22:26:44,15.08840278,0.0001555,53.2144,138.4533,82.7335,277.3834,0.00043835,6.695e-05,0.0,0 STARLINK-4292,1 53175U 22083AV  23049.93523322  .00006695  00000-0  43835-3 0  9995,2 53175  53.2144 138.4533 0001555  82.7335 277.3834 15.08840278 33567,6917.88,95.438,540.82,538.669,0.0
53175.0,STARLINK-4292,PAYLOAD,2023-02-19 11:09:48,15.08871997,0.0001538,53.2144,136.0748,88.6672,271.4496,0.0016854,0.00026661,0.0,0 STARLINK-4292,1 53175U 22083AV  23050.46514777  .00026661  00000-0  16854-2 0  9994,2 53175  53.2144 136.0748 0001538  88.6672 271.4496 15.08871997 33649,6917.783,95.436,540.712,538.584,0.0
53175.0,STARLINK-4292,PAYLOAD,2023-02-19 12:45:11,15.08874857,0.0001529,53.2145,135.7775,87.9716,272.1451,0.0016126,0.00025494,0.0,0 STARLINK-4292,1 53175U 22083AV  23050.53138602  .00025494  00000-0  16126-2 0  9996,2 53175  53.2145 135.7775 0001529  87.9716 272.1451 15.08874857 33015,6917.774,95.435,540.697,538.581,0.0
53175.0,STARLINK-4292,PAYLOAD,2023-02-20 04:39:02,15.0886203,0.0001948,53.2139,132.8012,82.1912,277.9301,0.00082781,0.00012919,0.0,0 STARLINK-4292,1 53175U 22083AV  23051.19378147  .00012919  00000-0  82781-3 0  9998,2 53175  53.2139 132.8012 0001948  82.1912 277.9301 15.08862030 33758,6917.813,95.436,541.026,538.33,0.0
53175.0,STARLINK-4292,PAYLOAD,2023-02-20 14:11:21,15.08857962,0.0001446,53.2139,131.0198,93.1152,267.0005,0.0012765,0.00020096,0.0,0 STARLINK-4292,1 53175U 22083AV  23051.59121846  .00020096  00000-0  12765-2 0  9993,2 53175  53.2139 131.0198 0001446  93.1152 267.0005 15.08857962 33170,6917.825,95.436,540.691,538.69,0.0
53175.0,STARLINK-4292,PAYLOAD,2023-02-21 10:51:22,15.08851455,0.0001196,53.2134,127.1533,109.2789,250.8332,0.0017203,0.00027205,0.0,0 STARLINK-4292,1 53175U 22083AV  23052.45234025  .00027205  00000-0  17203-2 0  9994,2 53175  53.2134 127.1533 0001196 109.2789 250.8332 15.08851455 33940,6917.845,95.437,540.538,538.883,0.0
53175.0,STARLINK-4292,PAYLOAD,2023-02-21 12:26:45,15.08856063,0.0001201,53.2133,126.8559,109.2362,250.876,0.002116,0.00033564,0.0,0 STARLINK-4292,1 53175U 22083AV  23052.51858004  .00033564  00000-0  21160-2 0  9992,2 53175  53.2133 126.8559 0001201 109.2362 250.8760 15.08856063 33313,6917.831,95.437,540.527,538.865,0.0
53175.0,STARLINK-4292,PAYLOAD,2023-02-21 17:12:54,15.08866624,0.0001218,53.2131,125.9639,100.1771,259.9359,0.0022666,0.00035996,0.0,0 STARLINK-4292,1 53175U 22083AV  23052.71729843  .00035996  00000-0  22666-2 0  9995,2 53175  53.2131 125.9639 0001218 100.1771 259.9359 15.08866624 33343,6917.799,95.436,540.507,538.821,0.0
53175.0,STARLINK-4292,PAYLOAD,2023-02-21 21:59:04,15.08839615,8.07e-05,53.2134,125.072,117.0093,243.0982,0.00036299,5.494e-05,0.0,0 STARLINK-4292,1 53175U 22083AV  23052.91601930  .00005494  00000-0  36299-3 0  9991,2 53175  53.2134 125.0720 0000807 117.0093 243.0982 15.08839615 34016,6917.882,95.438,540.305,539.188,0.0
53175.0,STARLINK-4292,PAYLOAD,2023-02-22 12:17:32,15.0885077,0.0001189,53.2129,122.3948,97.967,262.1457,0.0016907,0.0002673,0.0,0 STARLINK-4292,1 53175U 22083AV  23053.51218259  .00026730  00000-0  16907-2 0  9995,2 53175  53.2129 122.3948 0001189  97.9670 262.1457 15.08850770 33465,6917.847,95.437,540.535,538.89,0.0
53175.0,STARLINK-4292,PAYLOAD,2023-02-22 21:49:51,15.08844008,0.0001527,53.2134,120.6102,83.2317,276.8849,0.001308,0.00020592,0.0,0 STARLINK-4292,1 53175U 22083AV  23053.90962805  .00020592  00000-0  13080-2 0  9990,2 53175  53.2134 120.6102 0001527  83.2317 276.8849 15.08844008 33527,6917.868,95.437,540.789,538.677,0.0
53175.0,STARLINK-4292,PAYLOAD,2023-02-23 08:57:34,15.08810099,0.0001222,53.213,118.5278,92.0798,268.0334,0.00077917,0.00012124,0.0,0 STARLINK-4292,1 53175U 22083AV  23054.37331893  .00012124  00000-0  77917-3 0  9991,2 53175  53.2130 118.5278 0001222  92.0798 268.0334 15.08810099 34230,6917.972,95.439,540.682,538.991,0.0
53175.0,STARLINK-4292,PAYLOAD,2023-02-23 13:43:44,15.08810148,0.0001321,53.213,117.6361,88.5821,271.5322,0.0014332,0.00022576,0.0,0 STARLINK-4292,1 53175U 22083AV  23054.57204495  .00022576  00000-0  14332-2 0  9993,2 53175  53.2130 117.6361 0001321  88.5821 271.5322 15.08810148 33623,6917.972,95.439,540.751,538.923,0.0
53175.0,STARLINK-4292,PAYLOAD,2023-02-23 15:19:07,15.08808359,0.0001366,53.2133,117.3368,99.3549,260.7597,0.00082159,0.00012801,0.0,0 STARLINK-4292,1 53175U 22083AV  23054.63828560  .00012801  00000-0  82159-3 0  9998,2 53175  53.2133 117.3368 0001366  99.3549 260.7597 15.08808359 33632,6917.977,95.44,540.787,538.897,0.0
53175.0,STARLINK-4292,PAYLOAD,2023-02-24 02:26:49,15.08847757,0.0001216,53.2134,115.2576,77.5988,282.514,0.0016191,0.00025579,0.0,0 STARLINK-4292,1 53175U 22083AV  23055.10196451  .00025579  00000-0  16191-2 0  9996,2 53175  53.2134 115.2576 0001216  77.5988 282.5140 15.08847757 34340,6917.857,95.437,540.563,538.88,0.0
53175.0,STARLINK-4292,PAYLOAD,2023-02-24 10:23:44,15.08891493,0.0001286,53.2135,113.7705,80.5075,279.6062,0.0025174,0.00040061,0.0,0 STARLINK-4292,1 53175U 22083AV  23055.43315481  .00040061  00000-0  25174-2 0  9992,2 53175  53.2135 113.7705 0001286  80.5075 279.6062 15.08891493 34397,6917.723,95.434,540.478,538.698,0.0
53175.0,STARLINK-4292,PAYLOAD,2023-02-24 13:34:30,15.08895352,0.0001457,53.2134,113.1763,70.5654,289.5495,0.0020767,0.00032968,0.0,0 STARLINK-4292,1 53175U 22083AV  23055.56563088  .00032968  00000-0  20767-2 0  9994,2 53175  53.2134 113.1763 0001457  70.5654 289.5495 15.08895352 33775,6917.711,95.434,540.584,538.568,0.0
53175.0,STARLINK-4292,PAYLOAD,2023-02-24 15:09:53,15.08897501,0.0001448,53.2132,112.8783,71.9111,288.2039,0.0019196,0.00030443,0.0,0 STARLINK-4292,1 53175U 22083AV  23055.63186854  .00030443  00000-0  19196-2 0  9994,2 53175  53.2132 112.8783 0001448  71.9111 288.2039 15.08897501 34425,6917.705,95.434,540.571,538.568,0.0
53175.0,STARLINK-4292,PAYLOAD,2023-02-25 13:25:17,15.08854424,0.0001198,53.2135,108.7146,83.4856,276.6272,0.0018508,0.00029302,0.0,0 STARLINK-4292,1 53175U 22083AV  23056.55923263  .00029302  00000-0  18508-2 0  9997,2 53175  53.2135 108.7146 0001198  83.4856 276.6272 15.08854424 33922,6917.836,95.437,540.53,538.873,0.0
53175.0,STARLINK-4292,PAYLOAD,2023-02-26 08:29:54,15.08862814,0.000155,53.2147,105.1429,101.0056,259.1111,0.0010195,0.00015985,0.0,0 STARLINK-4292,1 53175U 22083AV  23057.35410776  .00015985  00000-0  10195-2 0  9992,2 53175  53.2147 105.1429 0001550 101.0056 259.1111 15.08862814 34685,6917.811,95.436,540.748,538.603,0.0
